{"type": "FeatureCollection", "features": [ {"type": "Feature", "properties": {"norad_id": 67228, "name": "QPS-SAR-15", "group": "last-30-days", "lat": 25.25225868395499, "lon": -114.95327767262951, "alt_km": 578.2527892087783, "timestamp": "2025-12-26T04:40:04.515624+00:00", "meta": {"OBJECT_NAME": "QPS-SAR-15", "OBJECT_ID": "2025-307A", "EPOCH": "2025-12-25T15:14:02.675616", "MEAN_MOTION": 14.97088724, "ECCENTRICITY": 0.0010062, "INCLINATION": 42.0066, "RA_OF_ASC_NODE": 99.7194, "ARG_OF_PERICENTER": 294.4282, "MEAN_ANOMALY": 65.5493, "EPHEMERIS_TYPE": 0, "CLASSIFICATION_TYPE": "U", "NORAD_CAT_ID": 67228, "ELEMENT_SET_NO": 999, "REV_AT_EPOCH": 65, "BSTAR": 0.00052701, "MEAN_MOTION_DOT": 6.008e-05, "MEAN_MOTION_DDOT": 0}, "tle": {"line1": "1 67228U 25307A   25359.63475319  .00006008  00000+0  52701-3 0  9995", "line2": "2 67228  42.0066  99.7194 0010062 294.4282  65.5493 14.97088724   657"}}, "geometry": {"type": "Point", "coordinates": [-114.95327767262951, 25.25225868395499]}}, {"type": "Feature", "properties": {"norad_id": 67229, "name": "ELECTRON KICK STAGE R/B", "group": "last-30-days", "lat": 41.60735000920622, "lon": 174.89331294382555, "alt_km": 549.8317310010634, "timestamp": "2025-12-26T04:40:04.515634+00:00", "meta": {"OBJECT_NAME": "ELECTRON KICK STAGE R/B", "OBJECT_ID": "2025-307B", "EPOCH": "2025-12-25T08:17:16.936224", "MEAN_MOTION": 15.56484039, "ECCENTRICITY": 0.0243047, "INCLINATION": 42.0009, "RA_OF_ASC_NODE": 99.251, "ARG_OF_PERICENTER": 265.5143, "MEAN_ANOMALY": 91.7904, "EPHEMERIS_TYPE": 0, "CLASSIFICATION_TYPE": "U", "NORAD_CAT_ID": 67229, "ELEMENT_SET_NO": 999, "REV_AT_EPOCH": 63, "BSTAR": 0.0014659, "MEAN_MOTION_DOT": 0.00455769, "MEAN_MOTION_DDOT": 6.2045e-05}, "tle": {"line1": "1 67229U 25307B   25359.34533491  .00455769  62045-4  14659-2 0  9993", "line2": "2 67229  42.0009  99.2510 0243047 265.5143  91.7904 15.56484039   639"}}, "geometry": {"type": "Point", "coordinates": [174.89331294382555, 41.60735000920622]}}, {"type": "Feature", "properties": {"norad_id": 67230, "name": "ELECTRON R/B", "group": "last-30-days", "lat": 41.96029093340101, "lon": -175.35640794568724, "alt_km": 540.4032115272821, "timestamp": "2025-12-26T04:40:04.515645+00:00", "meta": {"OBJECT_NAME": "ELECTRON R/B", "OBJECT_ID": "2025-307C", "EPOCH": "2025-12-21T08:41:59.140320", "MEAN_MOTION": 15.55087105, "ECCENTRICITY": 0.02614087, "INCLINATION": 41.982, "RA_OF_ASC_NODE": 123.1026, "ARG_OF_PERICENTER": 268.141, "MEAN_ANOMALY": 88.9482, "EPHEMERIS_TYPE": 0, "CLASSIFICATION_TYPE": "U", "NORAD_CAT_ID": 67230, "ELEMENT_SET_NO": 999, "REV_AT_EPOCH": 1, "BSTAR": 0.00020247584, "MEAN_MOTION_DOT": 0.00071881, "MEAN_MOTION_DDOT": 8.106877e-06}, "tle": {"line1": "1 67230U 25307C   25355.36249005  .00071881  81069-5  20248-3 0  9997", "line2": "2 67230  41.9820 123.1026 0261408 268.1410  88.9482 15.55087105    19"}}, "geometry": {"type": "Point", "coordinates": [-175.35640794568724, 41.96029093340101]}}, {"type": "Feature", "properties": {"norad_id": 67231, "name": "CZ-12A R/B", "group": "last-30-days", "lat": -69.6720378665256, "lon": -32.999949729808385, "alt_km": 215.37948944079562, "timestamp": "2025-12-26T04:40:04.515655+00:00", "meta": {"OBJECT_NAME": "CZ-12A R/B", "OBJECT_ID": "2025-308A", "EPOCH": "2025-12-25T23:07:48.590976", "MEAN_MOTION": 16.2587348, "ECCENTRICITY": 0.00211018, "INCLINATION": 69.7065, "RA_OF_ASC_NODE": 55.0461, "ARG_OF_PERICENTER": 148.7335, "MEAN_ANOMALY": 211.5147, "EPHEMERIS_TYPE": 0, "CLASSIFICATION_TYPE": "U", "NORAD_CAT_ID": 67231, "ELEMENT_SET_NO": 999, "REV_AT_EPOCH": 47, "BSTAR": 0.0005399403, "MEAN_MOTION_DOT": 0.01764405, "MEAN_MOTION_DDOT": 4.394872e-06}, "tle": {"line1": "1 67231U 25308A   25359.96375684  .01764405  43949-5  53994-3 0  9993", "line2": "2 67231  69.7065  55.0461 0021101 148.7335 211.5147 16.25873480   477"}}, "geometry": {"type": "Point", "coordinates": [-32.999949729808385, -69.6720378665256]}}]}